CCSDS_OMM_VERS = 2.0
CREATION_DATE  = 
ORIGINATOR     = 

OBJECT_NAME    = HULIANWANG DIGUI-130
OBJECT_ID      = 2025-311C
CENTER_NAME    = EARTH
REF_FRAME      = TEME
TIME_SYSTEM    = UTC
MEAN_ELEMENT_THEORY = SGP/SGP4

EPOCH          = 2026-01-15T15:25:02.844192
MEAN_MOTION    = 13.90218602
ECCENTRICITY   = .00077665
INCLINATION    = 50.0071
RA_OF_ASC_NODE = 313.4663
ARG_OF_PERICENTER = 325.4977
MEAN_ANOMALY   = 34.5417

EPHEMERIS_TYPE = 0
CLASSIFICATION_TYPE = U
NORAD_CAT_ID   = 67238
ELEMENT_SET_NO = 999
REV_AT_EPOCH   = 288
BSTAR          = .84076042E-4
MEAN_MOTION_DOT = -.42E-6
MEAN_MOTION_DDOT = 0

CCSDS_OMM_VERS = 2.0
CREATION_DATE  = 
ORIGINATOR     = 

OBJECT_NAME    = HULIANWANG DIGUI-131
OBJECT_ID      = 2025-311D
CENTER_NAME    = EARTH
REF_FRAME      = TEME
TIME_SYSTEM    = UTC
MEAN_ELEMENT_THEORY = SGP/SGP4

EPOCH          = 2026-01-15T15:29:31.742592
MEAN_MOTION    = 13.90205630
ECCENTRICITY   = .00093773
INCLINATION    = 50.0066
RA_OF_ASC_NODE = 313.4811
ARG_OF_PERICENTER = 332.8334
MEAN_ANOMALY   = 27.2073

EPHEMERIS_TYPE = 0
CLASSIFICATION_TYPE = U
NORAD_CAT_ID   = 67239
ELEMENT_SET_NO = 999
REV_AT_EPOCH   = 288
BSTAR          = .80418412E-4
MEAN_MOTION_DOT = -.46E-6
MEAN_MOTION_DDOT = 0

CCSDS_OMM_VERS = 2.0
CREATION_DATE  = 
ORIGINATOR     = 

OBJECT_NAME    = HULIANWANG DIGUI-132
OBJECT_ID      = 2025-311E
CENTER_NAME    = EARTH
REF_FRAME      = TEME
TIME_SYSTEM    = UTC
MEAN_ELEMENT_THEORY = SGP/SGP4

EPOCH          = 2026-01-15T15:20:36.617280
MEAN_MOTION    = 13.90231481
ECCENTRICITY   = .00084652
INCLINATION    = 50.0078
RA_OF_ASC_NODE = 313.4522
ARG_OF_PERICENTER = 339.4838
MEAN_ANOMALY   = 20.5719

EPHEMERIS_TYPE = 0
CLASSIFICATION_TYPE = U
NORAD_CAT_ID   = 67240
ELEMENT_SET_NO = 999
REV_AT_EPOCH   = 288
BSTAR          = .74510039E-4
MEAN_MOTION_DOT = -.53E-6
MEAN_MOTION_DDOT = 0

CCSDS_OMM_VERS = 2.0
CREATION_DATE  = 
ORIGINATOR     = 

OBJECT_NAME    = HULIANWANG DIGUI-133
OBJECT_ID      = 2025-311F
CENTER_NAME    = EARTH
REF_FRAME      = TEME
TIME_SYSTEM    = UTC
MEAN_ELEMENT_THEORY = SGP/SGP4

EPOCH          = 2026-01-15T10:07:27.512544
MEAN_MOTION    = 13.90209467
ECCENTRICITY   = .00075869
INCLINATION    = 50.0122
RA_OF_ASC_NODE = 314.3128
ARG_OF_PERICENTER = 342.9599
MEAN_ANOMALY   = 17.1044

EPHEMERIS_TYPE = 0
CLASSIFICATION_TYPE = U
NORAD_CAT_ID   = 67241
ELEMENT_SET_NO = 999
REV_AT_EPOCH   = 285
BSTAR          = .86445611E-4
MEAN_MOTION_DOT = -.39E-6
MEAN_MOTION_DDOT = 0

CCSDS_OMM_VERS = 2.0
CREATION_DATE  = 
ORIGINATOR     = 

OBJECT_NAME    = HULIANWANG DIGUI-134
OBJECT_ID      = 2025-311G
CENTER_NAME    = EARTH
REF_FRAME      = TEME
TIME_SYSTEM    = UTC
MEAN_ELEMENT_THEORY = SGP/SGP4

EPOCH          = 2026-01-15T15:19:34.653792
MEAN_MOTION    = 13.90195582
ECCENTRICITY   = .00067014
INCLINATION    = 50.0053
RA_OF_ASC_NODE = 313.4415
ARG_OF_PERICENTER = 332.6519
MEAN_ANOMALY   = 27.4026

EPHEMERIS_TYPE = 0
CLASSIFICATION_TYPE = U
NORAD_CAT_ID   = 67242
ELEMENT_SET_NO = 999
REV_AT_EPOCH   = 288
BSTAR          = .83319738E-4
MEAN_MOTION_DOT = -.43E-6
MEAN_MOTION_DDOT = 0

CCSDS_OMM_VERS = 2.0
CREATION_DATE  = 
ORIGINATOR     = 

OBJECT_NAME    = HULIANWANG DIGUI-135
OBJECT_ID      = 2025-311H
CENTER_NAME    = EARTH
REF_FRAME      = TEME
TIME_SYSTEM    = UTC
MEAN_ELEMENT_THEORY = SGP/SGP4

EPOCH          = 2026-01-15T18:49:37.039872
MEAN_MOTION    = 13.90184579
ECCENTRICITY   = .00079217
INCLINATION    = 50.0039
RA_OF_ASC_NODE = 312.8763
ARG_OF_PERICENTER = 335.6159
MEAN_ANOMALY   = 24.4364

EPHEMERIS_TYPE = 0
CLASSIFICATION_TYPE = U
NORAD_CAT_ID   = 67243
ELEMENT_SET_NO = 999
REV_AT_EPOCH   = 290
BSTAR          = .79456064E-4
MEAN_MOTION_DOT = -.47E-6
MEAN_MOTION_DDOT = 0

CCSDS_OMM_VERS = 2.0
CREATION_DATE  = 
ORIGINATOR     = 

OBJECT_NAME    = HULIANWANG DIGUI-136
OBJECT_ID      = 2025-311J
CENTER_NAME    = EARTH
REF_FRAME      = TEME
TIME_SYSTEM    = UTC
MEAN_ELEMENT_THEORY = SGP/SGP4

EPOCH          = 2026-01-15T15:16:20.220960
MEAN_MOTION    = 13.90230435
ECCENTRICITY   = .00068454
INCLINATION    = 50.0111
RA_OF_ASC_NODE = 313.4448
ARG_OF_PERICENTER = 341.4891
MEAN_ANOMALY   = 18.5758

EPHEMERIS_TYPE = 0
CLASSIFICATION_TYPE = U
NORAD_CAT_ID   = 67244
ELEMENT_SET_NO = 999
REV_AT_EPOCH   = 288
BSTAR          = .81175873E-4
MEAN_MOTION_DOT = -.45E-6
MEAN_MOTION_DDOT = 0

CCSDS_OMM_VERS = 2.0
CREATION_DATE  = 
ORIGINATOR     = 

OBJECT_NAME    = CZ-8A R/B
OBJECT_ID      = 2025-311K
CENTER_NAME    = EARTH
REF_FRAME      = TEME
TIME_SYSTEM    = UTC
MEAN_ELEMENT_THEORY = SGP/SGP4

EPOCH          = 2026-01-16T07:34:16.353120
MEAN_MOTION    = 14.12608336
ECCENTRICITY   = .0088962
INCLINATION    = 50.0053
RA_OF_ASC_NODE = 307.6817
ARG_OF_PERICENTER = 155.6629
MEAN_ANOMALY   = 204.8518

EPHEMERIS_TYPE = 0
CLASSIFICATION_TYPE = U
NORAD_CAT_ID   = 67245
ELEMENT_SET_NO = 999
REV_AT_EPOCH   = 302
BSTAR          = -.54828323E-4
MEAN_MOTION_DOT = -.261E-5
MEAN_MOTION_DDOT = 0

CCSDS_OMM_VERS = 2.0
CREATION_DATE  = 
ORIGINATOR     = 

OBJECT_NAME    = FENGYUN 4C
OBJECT_ID      = 2025-312A
CENTER_NAME    = EARTH
REF_FRAME      = TEME
TIME_SYSTEM    = UTC
MEAN_ELEMENT_THEORY = SGP/SGP4

EPOCH          = 2026-01-16T06:07:22.745568
MEAN_MOTION    = 1.00270282
ECCENTRICITY   = .00024557
INCLINATION    = 0.0736
RA_OF_ASC_NODE = 237.1815
ARG_OF_PERICENTER = 52.9458
MEAN_ANOMALY   = 50.4799

EPHEMERIS_TYPE = 0
CLASSIFICATION_TYPE = U
NORAD_CAT_ID   = 67246
ELEMENT_SET_NO = 999
REV_AT_EPOCH   = 25
BSTAR          = 0
MEAN_MOTION_DOT = -.305E-5
MEAN_MOTION_DDOT = 0

CCSDS_OMM_VERS = 2.0
CREATION_DATE  = 
ORIGINATOR     = 

OBJECT_NAME    = CZ-3B R/B
OBJECT_ID      = 2025-312B
CENTER_NAME    = EARTH
REF_FRAME      = TEME
TIME_SYSTEM    = UTC
MEAN_ELEMENT_THEORY = SGP/SGP4

EPOCH          = 2026-01-16T03:53:54.551616
MEAN_MOTION    = 2.44291574
ECCENTRICITY   = .72035131
INCLINATION    = 28.4182
RA_OF_ASC_NODE = 326.1802
ARG_OF_PERICENTER = 192.1802
MEAN_ANOMALY   = 130.2341

EPHEMERIS_TYPE = 0
CLASSIFICATION_TYPE = U
NORAD_CAT_ID   = 67247
ELEMENT_SET_NO = 999
REV_AT_EPOCH   = 49
BSTAR          = .48752697E-3
MEAN_MOTION_DOT = .158255E-2
MEAN_MOTION_DDOT = -.15121E-7

CCSDS_OMM_VERS = 2.0
CREATION_DATE  = 
ORIGINATOR     = 

OBJECT_NAME    = 2025-313A
OBJECT_ID      = 2025-313A
CENTER_NAME    = EARTH
REF_FRAME      = TEME
TIME_SYSTEM    = UTC
MEAN_ELEMENT_THEORY = SGP/SGP4

EPOCH          = 2026-01-16T07:12:10.749888
MEAN_MOTION    = 14.66797417
ECCENTRICITY   = .02805716
INCLINATION    = 97.5629
RA_OF_ASC_NODE = 92.3822
ARG_OF_PERICENTER = 104.5937
MEAN_ANOMALY   = 258.6557

EPHEMERIS_TYPE = 0
CLASSIFICATION_TYPE = U
NORAD_CAT_ID   = 67248
ELEMENT_SET_NO = 999
REV_AT_EPOCH   = 275
BSTAR          = .11651082E-3
MEAN_MOTION_DOT = .112E-4
MEAN_MOTION_DDOT = 0

CCSDS_OMM_VERS = 2.0
CREATION_DATE  = 
ORIGINATOR     = 

OBJECT_NAME    = 2025-313B
OBJECT_ID      = 2025-313B
CENTER_NAME    = EARTH
REF_FRAME      = TEME
TIME_SYSTEM    = UTC
MEAN_ELEMENT_THEORY = SGP/SGP4

EPOCH          = 2026-01-16T06:55:01.074432
MEAN_MOTION    = 14.73201178
ECCENTRICITY   = .02977834
INCLINATION    = 97.5321
RA_OF_ASC_NODE = 92.4640
ARG_OF_PERICENTER = 108.8049
MEAN_ANOMALY   = 254.5709

EPHEMERIS_TYPE = 0
CLASSIFICATION_TYPE = U
NORAD_CAT_ID   = 67249
ELEMENT_SET_NO = 999
REV_AT_EPOCH   = 276
BSTAR          = .21814284E-3
MEAN_MOTION_DOT = .2819E-4
MEAN_MOTION_DDOT = 0

CCSDS_OMM_VERS = 2.0
CREATION_DATE  = 
ORIGINATOR     = 

OBJECT_NAME    = 2025-313C
OBJECT_ID      = 2025-313C
CENTER_NAME    = EARTH
REF_FRAME      = TEME
TIME_SYSTEM    = UTC
MEAN_ELEMENT_THEORY = SGP/SGP4

EPOCH          = 2026-01-16T06:45:49.303296
MEAN_MOTION    = 14.84699337
ECCENTRICITY   = .01629964
INCLINATION    = 97.6364
RA_OF_ASC_NODE = 93.0263
ARG_OF_PERICENTER = 118.8292
MEAN_ANOMALY   = 242.9397

EPHEMERIS_TYPE = 0
CLASSIFICATION_TYPE = U
NORAD_CAT_ID   = 67250
ELEMENT_SET_NO = 999
REV_AT_EPOCH   = 278
BSTAR          = .10773851E-2
MEAN_MOTION_DOT = .11534E-3
MEAN_MOTION_DDOT = 0

CCSDS_OMM_VERS = 2.0
CREATION_DATE  = 
ORIGINATOR     = 

OBJECT_NAME    = 2025-313D
OBJECT_ID      = 2025-313D
CENTER_NAME    = EARTH
REF_FRAME      = TEME
TIME_SYSTEM    = UTC
MEAN_ELEMENT_THEORY = SGP/SGP4

EPOCH          = 2026-01-16T07:04:55.671456
MEAN_MOTION    = 14.88747612
ECCENTRICITY   = .01523868
INCLINATION    = 97.5874
RA_OF_ASC_NODE = 93.0273
ARG_OF_PERICENTER = 111.3568
MEAN_ANOMALY   = 250.3990

EPHEMERIS_TYPE = 0
CLASSIFICATION_TYPE = U
NORAD_CAT_ID   = 67251
ELEMENT_SET_NO = 999
REV_AT_EPOCH   = 279
BSTAR          = .20401435E-3
MEAN_MOTION_DOT = .2309E-4
MEAN_MOTION_DDOT = 0

CCSDS_OMM_VERS = 2.0
CREATION_DATE  = 
ORIGINATOR     = 

OBJECT_NAME    = ZORKIY-2M-VPE
OBJECT_ID      = 2025-313E
CENTER_NAME    = EARTH
REF_FRAME      = TEME
TIME_SYSTEM    = UTC
MEAN_ELEMENT_THEORY = SGP/SGP4

EPOCH          = 2026-01-16T06:56:00.742272
MEAN_MOTION    = 15.21657966
ECCENTRICITY   = .00112244
INCLINATION    = 97.4117
RA_OF_ASC_NODE = 93.4686
ARG_OF_PERICENTER = 152.7075
MEAN_ANOMALY   = 207.4753

EPHEMERIS_TYPE = 0
CLASSIFICATION_TYPE = U
NORAD_CAT_ID   = 67252
ELEMENT_SET_NO = 999
REV_AT_EPOCH   = 285
BSTAR          = .30067615E-3
MEAN_MOTION_DOT = .6739E-4
MEAN_MOTION_DDOT = 0

